<?xml version="1.0" encoding="UTF-8"?>
<ndm xmlns:xsi="http://www.w3.org/2001/XMLSchema-instance" xsi:noNamespaceSchemaLocation="https://sanaregistry.org/r/ndmxml_unqualified/ndmxml-2.0.0-master-2.0.xsd">
<omm id="CCSDS_OMM_VERS" version="2.0">
<header><CREATION_DATE/><ORIGINATOR/></header><body><segment><metadata><OBJECT_NAME>KORONAS-FOTON</OBJECT_NAME><OBJECT_ID>2009-003A</OBJECT_ID><CENTER_NAME>EARTH</CENTER_NAME><REF_FRAME>TEME</REF_FRAME><TIME_SYSTEM>UTC</TIME_SYSTEM><MEAN_ELEMENT_THEORY>SGP4</MEAN_ELEMENT_THEORY></metadata><data><meanElements><EPOCH>2023-02-03T20:42:11.598336</EPOCH><MEAN_MOTION>15.18746959</MEAN_MOTION><ECCENTRICITY>.001759</ECCENTRICITY><INCLINATION>82.4430</INCLINATION><RA_OF_ASC_NODE>344.8524</RA_OF_ASC_NODE><ARG_OF_PERICENTER>180.8504</ARG_OF_PERICENTER><MEAN_ANOMALY>179.2704</MEAN_ANOMALY></meanElements><tleParameters><EPHEMERIS_TYPE>0</EPHEMERIS_TYPE><CLASSIFICATION_TYPE>U</CLASSIFICATION_TYPE><NORAD_CAT_ID>33504</NORAD_CAT_ID><ELEMENT_SET_NO>999</ELEMENT_SET_NO><REV_AT_EPOCH>77319</REV_AT_EPOCH><BSTAR>.27592E-3</BSTAR><MEAN_MOTION_DOT>.5784E-4</MEAN_MOTION_DOT><MEAN_MOTION_DDOT>0</MEAN_MOTION_DDOT></tleParameters></data></segment></body></omm>
<omm id="CCSDS_OMM_VERS" version="2.0">
<header><CREATION_DATE/><ORIGINATOR/></header><body><segment><metadata><OBJECT_NAME>CZ-2C R/B</OBJECT_NAME><OBJECT_ID>2011-030B</OBJECT_ID><CENTER_NAME>EARTH</CENTER_NAME><REF_FRAME>TEME</REF_FRAME><TIME_SYSTEM>UTC</TIME_SYSTEM><MEAN_ELEMENT_THEORY>SGP4</MEAN_ELEMENT_THEORY></metadata><data><meanElements><EPOCH>2023-02-03T16:11:22.357248</EPOCH><MEAN_MOTION>14.75483772</MEAN_MOTION><ECCENTRICITY>.0060017</ECCENTRICITY><INCLINATION>97.6982</INCLINATION><RA_OF_ASC_NODE>14.7140</RA_OF_ASC_NODE><ARG_OF_PERICENTER>60.1996</ARG_OF_PERICENTER><MEAN_ANOMALY>354.0378</MEAN_ANOMALY></meanElements><tleParameters><EPHEMERIS_TYPE>0</EPHEMERIS_TYPE><CLASSIFICATION_TYPE>U</CLASSIFICATION_TYPE><NORAD_CAT_ID>37731</NORAD_CAT_ID><ELEMENT_SET_NO>999</ELEMENT_SET_NO><REV_AT_EPOCH>62314</REV_AT_EPOCH><BSTAR>.20833E-3</BSTAR><MEAN_MOTION_DOT>.1409E-4</MEAN_MOTION_DOT><MEAN_MOTION_DDOT>0</MEAN_MOTION_DDOT></tleParameters></data></segment></body></omm>
<omm id="CCSDS_OMM_VERS" version="2.0">
<header><CREATION_DATE/><ORIGINATOR/></header><body><segment><metadata><OBJECT_NAME>H-2A R/B</OBJECT_NAME><OBJECT_ID>2012-025E</OBJECT_ID><CENTER_NAME>EARTH</CENTER_NAME><REF_FRAME>TEME</REF_FRAME><TIME_SYSTEM>UTC</TIME_SYSTEM><MEAN_ELEMENT_THEORY>SGP4</MEAN_ELEMENT_THEORY></metadata><data><meanElements><EPOCH>2023-02-03T22:20:32.543808</EPOCH><MEAN_MOTION>14.85358424</MEAN_MOTION><ECCENTRICITY>.0054746</ECCENTRICITY><INCLINATION>98.4761</INCLINATION><RA_OF_ASC_NODE>270.2696</RA_OF_ASC_NODE><ARG_OF_PERICENTER>23.0068</ARG_OF_PERICENTER><MEAN_ANOMALY>337.3579</MEAN_ANOMALY></meanElements><tleParameters><EPHEMERIS_TYPE>0</EPHEMERIS_TYPE><CLASSIFICATION_TYPE>U</CLASSIFICATION_TYPE><NORAD_CAT_ID>38341</NORAD_CAT_ID><ELEMENT_SET_NO>999</ELEMENT_SET_NO><REV_AT_EPOCH>58000</REV_AT_EPOCH><BSTAR>.2102E-3</BSTAR><MEAN_MOTION_DOT>.1793E-4</MEAN_MOTION_DOT><MEAN_MOTION_DDOT>0</MEAN_MOTION_DDOT></tleParameters></data></segment></body></omm>
<omm id="CCSDS_OMM_VERS" version="2.0">
<header><CREATION_DATE/><ORIGINATOR/></header><body><segment><metadata><OBJECT_NAME>CUSAT 2 &amp; FALCON 9 R/B</OBJECT_NAME><OBJECT_ID>2013-055G</OBJECT_ID><CENTER_NAME>EARTH</CENTER_NAME><REF_FRAME>TEME</REF_FRAME><TIME_SYSTEM>UTC</TIME_SYSTEM><MEAN_ELEMENT_THEORY>SGP4</MEAN_ELEMENT_THEORY></metadata><data><meanElements><EPOCH>2023-02-03T04:06:43.201440</EPOCH><MEAN_MOTION>14.74367008</MEAN_MOTION><ECCENTRICITY>.0483884</ECCENTRICITY><INCLINATION>80.9541</INCLINATION><RA_OF_ASC_NODE>299.0768</RA_OF_ASC_NODE><ARG_OF_PERICENTER>121.9031</ARG_OF_PERICENTER><MEAN_ANOMALY>243.0202</MEAN_ANOMALY></meanElements><tleParameters><EPHEMERIS_TYPE>0</EPHEMERIS_TYPE><CLASSIFICATION_TYPE>U</CLASSIFICATION_TYPE><NORAD_CAT_ID>39271</NORAD_CAT_ID><ELEMENT_SET_NO>999</ELEMENT_SET_NO><REV_AT_EPOCH>49062</REV_AT_EPOCH><BSTAR>.49509E-3</BSTAR><MEAN_MOTION_DOT>.25346E-3</MEAN_MOTION_DOT><MEAN_MOTION_DDOT>0</MEAN_MOTION_DDOT></tleParameters></data></segment></body></omm>
<omm id="CCSDS_OMM_VERS" version="2.0">
<header><CREATION_DATE/><ORIGINATOR/></header><body><segment><metadata><OBJECT_NAME>SHIJIAN-16 (SJ-16)</OBJECT_NAME><OBJECT_ID>2013-057A</OBJECT_ID><CENTER_NAME>EARTH</CENTER_NAME><REF_FRAME>TEME</REF_FRAME><TIME_SYSTEM>UTC</TIME_SYSTEM><MEAN_ELEMENT_THEORY>SGP4</MEAN_ELEMENT_THEORY></metadata><data><meanElements><EPOCH>2023-02-03T21:56:50.788608</EPOCH><MEAN_MOTION>14.86601470</MEAN_MOTION><ECCENTRICITY>.001927</ECCENTRICITY><INCLINATION>74.9743</INCLINATION><RA_OF_ASC_NODE>154.1447</RA_OF_ASC_NODE><ARG_OF_PERICENTER>319.9974</ARG_OF_PERICENTER><MEAN_ANOMALY>39.9793</MEAN_ANOMALY></meanElements><tleParameters><EPHEMERIS_TYPE>0</EPHEMERIS_TYPE><CLASSIFICATION_TYPE>U</CLASSIFICATION_TYPE><NORAD_CAT_ID>39358</NORAD_CAT_ID><ELEMENT_SET_NO>999</ELEMENT_SET_NO><REV_AT_EPOCH>50338</REV_AT_EPOCH><BSTAR>.21138E-3</BSTAR><MEAN_MOTION_DOT>.1853E-4</MEAN_MOTION_DOT><MEAN_MOTION_DDOT>0</MEAN_MOTION_DDOT></tleParameters></data></segment></body></omm>
<omm id="CCSDS_OMM_VERS" version="2.0">
<header><CREATION_DATE/><ORIGINATOR/></header><body><segment><metadata><OBJECT_NAME>CZ-2C R/B</OBJECT_NAME><OBJECT_ID>2013-059B</OBJECT_ID><CENTER_NAME>EARTH</CENTER_NAME><REF_FRAME>TEME</REF_FRAME><TIME_SYSTEM>UTC</TIME_SYSTEM><MEAN_ELEMENT_THEORY>SGP4</MEAN_ELEMENT_THEORY></metadata><data><meanElements><EPOCH>2023-02-04T03:15:11.541600</EPOCH><MEAN_MOTION>15.36475345</MEAN_MOTION><ECCENTRICITY>.0037253</ECCENTRICITY><INCLINATION>97.1278</INCLINATION><RA_OF_ASC_NODE>85.8219</RA_OF_ASC_NODE><ARG_OF_PERICENTER>218.1545</ARG_OF_PERICENTER><MEAN_ANOMALY>141.7062</MEAN_ANOMALY></meanElements><tleParameters><EPHEMERIS_TYPE>0</EPHEMERIS_TYPE><CLASSIFICATION_TYPE>U</CLASSIFICATION_TYPE><NORAD_CAT_ID>39364</NORAD_CAT_ID><ELEMENT_SET_NO>999</ELEMENT_SET_NO><REV_AT_EPOCH>51575</REV_AT_EPOCH><BSTAR>.45549E-3</BSTAR><MEAN_MOTION_DOT>.16525E-3</MEAN_MOTION_DOT><MEAN_MOTION_DDOT>0</MEAN_MOTION_DDOT></tleParameters></data></segment></body></omm>
<omm id="CCSDS_OMM_VERS" version="2.0">
<header><CREATION_DATE/><ORIGINATOR/></header><body><segment><metadata><OBJECT_NAME>SL-4 R/B</OBJECT_NAME><OBJECT_ID>2014-021B</OBJECT_ID><CENTER_NAME>EARTH</CENTER_NAME><REF_FRAME>TEME</REF_FRAME><TIME_SYSTEM>UTC</TIME_SYSTEM><MEAN_ELEMENT_THEORY>SGP4</MEAN_ELEMENT_THEORY></metadata><data><meanElements><EPOCH>2023-02-03T03:50:29.450112</EPOCH><MEAN_MOTION>15.10766148</MEAN_MOTION><ECCENTRICITY>.0159731</ECCENTRICITY><INCLINATION>51.6143</INCLINATION><RA_OF_ASC_NODE>320.2114</RA_OF_ASC_NODE><ARG_OF_PERICENTER>41.9062</ARG_OF_PERICENTER><MEAN_ANOMALY>319.4008</MEAN_ANOMALY></meanElements><tleParameters><EPHEMERIS_TYPE>0</EPHEMERIS_TYPE><CLASSIFICATION_TYPE>U</CLASSIFICATION_TYPE><NORAD_CAT_ID>39679</NORAD_CAT_ID><ELEMENT_SET_NO>999</ELEMENT_SET_NO><REV_AT_EPOCH>48396</REV_AT_EPOCH><BSTAR>.29843E-3</BSTAR><MEAN_MOTION_DOT>.6443E-4</MEAN_MOTION_DOT><MEAN_MOTION_DDOT>0</MEAN_MOTION_DDOT></tleParameters></data></segment></body></omm>
<omm id="CCSDS_OMM_VERS" version="2.0">
<header><CREATION_DATE/><ORIGINATOR/></header><body><segment><metadata><OBJECT_NAME>ALOS-2</OBJECT_NAME><OBJECT_ID>2014-029A</OBJECT_ID><CENTER_NAME>EARTH</CENTER_NAME><REF_FRAME>TEME</REF_FRAME><TIME_SYSTEM>UTC</TIME_SYSTEM><MEAN_ELEMENT_THEORY>SGP4</MEAN_ELEMENT_THEORY></metadata><data><meanElements><EPOCH>2023-02-03T21:53:29.198400</EPOCH><MEAN_MOTION>14.79470282</MEAN_MOTION><ECCENTRICITY>.0001552</ECCENTRICITY><INCLINATION>97.9191</INCLINATION><RA_OF_ASC_NODE>133.7264</RA_OF_ASC_NODE><ARG_OF_PERICENTER>93.1296</ARG_OF_PERICENTER><MEAN_ANOMALY>267.0111</MEAN_ANOMALY></meanElements><tleParameters><EPHEMERIS_TYPE>0</EPHEMERIS_TYPE><CLASSIFICATION_TYPE>U</CLASSIFICATION_TYPE><NORAD_CAT_ID>39766</NORAD_CAT_ID><ELEMENT_SET_NO>999</ELEMENT_SET_NO><REV_AT_EPOCH>46985</REV_AT_EPOCH><BSTAR>-.17173E-4</BSTAR><MEAN_MOTION_DOT>-.18E-5</MEAN_MOTION_DOT><MEAN_MOTION_DDOT>0</MEAN_MOTION_DDOT></tleParameters></data></segment></body></omm>
<omm id="CCSDS_OMM_VERS" version="2.0">
<header><CREATION_DATE/><ORIGINATOR/></header><body><segment><metadata><OBJECT_NAME>SL-27 R/B</OBJECT_NAME><OBJECT_ID>2014-084B</OBJECT_ID><CENTER_NAME>EARTH</CENTER_NAME><REF_FRAME>TEME</REF_FRAME><TIME_SYSTEM>UTC</TIME_SYSTEM><MEAN_ELEMENT_THEORY>SGP4</MEAN_ELEMENT_THEORY></metadata><data><meanElements><EPOCH>2023-02-03T20:04:36.669792</EPOCH><MEAN_MOTION>15.47907546</MEAN_MOTION><ECCENTRICITY>.0031199</ECCENTRICITY><INCLINATION>74.7347</INCLINATION><RA_OF_ASC_NODE>192.6039</RA_OF_ASC_NODE><ARG_OF_PERICENTER>255.2650</ARG_OF_PERICENTER><MEAN_ANOMALY>104.5108</MEAN_ANOMALY></meanElements><tleParameters><EPHEMERIS_TYPE>0</EPHEMERIS_TYPE><CLASSIFICATION_TYPE>U</CLASSIFICATION_TYPE><NORAD_CAT_ID>40354</NORAD_CAT_ID><ELEMENT_SET_NO>999</ELEMENT_SET_NO><REV_AT_EPOCH>45634</REV_AT_EPOCH><BSTAR>.24347E-3</BSTAR><MEAN_MOTION_DOT>.129E-3</MEAN_MOTION_DOT><MEAN_MOTION_DDOT>0</MEAN_MOTION_DDOT></tleParameters></data></segment></body></omm>

</ndm>
